{
"type": "FeatureCollection",
"name": "bassin_versant",
"crs": { "type": "name", "properties": { "name": "urn:ogc:def:crs:OGC:1.3:CRS84" } },
"features": [
{ "type": "Feature", "properties": { "superficie_km2": 0.62251303997697993 }, "geometry": { "type": "Polygon", "coordinates": [ [ [ 2.095416666726813, 7.296527777451657 ], [ 2.095416666726813, 7.296249999674033 ], [ 2.09513888894941, 7.296249999674033 ], [ 2.09513888894941, 7.295694444118785 ], [ 2.094861111172007, 7.295694444118785 ], [ 2.094861111172007, 7.294861110785911 ], [ 2.095416666726813, 7.294861110785911 ], [ 2.095416666726813, 7.294583333008287 ], [ 2.095694444504216, 7.294583333008287 ], [ 2.095694444504216, 7.294305555230663 ], [ 2.095972222281619, 7.294305555230663 ], [ 2.095972222281619, 7.294027777453039 ], [ 2.095694444504216, 7.294027777453039 ], [ 2.095694444504216, 7.291805555232044 ], [ 2.09513888894941, 7.291805555232044 ], [ 2.09513888894941, 7.291249999676795 ], [ 2.094861111172007, 7.291249999676795 ], [ 2.094861111172007, 7.291527777454419 ], [ 2.094583333394604, 7.291527777454419 ], [ 2.094583333394604, 7.291249999676795 ], [ 2.094305555617201, 7.291249999676795 ], [ 2.094305555617201, 7.290972221899171 ], [ 2.093750000062395, 7.290972221899171 ], [ 2.093750000062395, 7.290694444121547 ], [ 2.093472222284992, 7.290694444121547 ], [ 2.093472222284992, 7.289583333011049 ], [ 2.093750000062395, 7.289583333011049 ], [ 2.093750000062395, 7.288749999678177 ], [ 2.093472222284992, 7.288749999678177 ], [ 2.093472222284992, 7.288472221900553 ], [ 2.093750000062395, 7.288472221900553 ], [ 2.093750000062395, 7.287916666345303 ], [ 2.094027777839798, 7.287916666345303 ], [ 2.094027777839798, 7.287638888567679 ], [ 2.094305555617201, 7.287638888567679 ], [ 2.094305555617201, 7.287083333012431 ], [ 2.094583333394604, 7.287083333012431 ], [ 2.094583333394604, 7.286805555234807 ], [ 2.094861111172007, 7.286805555234807 ], [ 2.094861111172007, 7.285694444124309 ], [ 2.095694444504216, 7.285694444124309 ], [ 2.095694444504216, 7.285972221901933 ], [ 2.096527777836425, 7.285972221901933 ], [ 2.096527777836425, 7.286249999679558 ], [ 2.097361111168634, 7.286249999679558 ], [ 2.097361111168634, 7.286527777457183 ], [ 2.09791666672344, 7.286527777457183 ], [ 2.09791666672344, 7.286805555234807 ], [ 2.097638888946037, 7.286805555234807 ], [ 2.097638888946037, 7.287361110790055 ], [ 2.09791666672344, 7.287361110790055 ], [ 2.09791666672344, 7.288472221900553 ], [ 2.098194444500843, 7.288472221900553 ], [ 2.098194444500843, 7.288749999678177 ], [ 2.098472222278246, 7.288749999678177 ], [ 2.098472222278246, 7.289583333011049 ], [ 2.099305555610455, 7.289583333011049 ], [ 2.099305555610455, 7.289861110788674 ], [ 2.099583333387858, 7.289861110788674 ], [ 2.099583333387858, 7.290972221899171 ], [ 2.099861111165262, 7.290972221899171 ], [ 2.099861111165262, 7.291249999676795 ], [ 2.100138888942665, 7.291249999676795 ], [ 2.100138888942665, 7.291527777454419 ], [ 2.100416666720068, 7.291527777454419 ], [ 2.100416666720068, 7.291805555232044 ], [ 2.101250000052277, 7.291805555232044 ], [ 2.101250000052277, 7.292083333009669 ], [ 2.101805555607083, 7.292083333009669 ], [ 2.101805555607083, 7.292361110787293 ], [ 2.102916666716695, 7.292361110787293 ], [ 2.102916666716695, 7.292916666342541 ], [ 2.103194444494098, 7.292916666342541 ], [ 2.103194444494098, 7.294583333008287 ], [ 2.102361111161889, 7.294583333008287 ], [ 2.102361111161889, 7.294305555230663 ], [ 2.102083333384486, 7.294305555230663 ], [ 2.102083333384486, 7.294027777453039 ], [ 2.100972222274874, 7.294027777453039 ], [ 2.100972222274874, 7.294305555230663 ], [ 2.100694444497471, 7.294305555230663 ], [ 2.100694444497471, 7.294027777453039 ], [ 2.099861111165262, 7.294027777453039 ], [ 2.099861111165262, 7.294305555230663 ], [ 2.099583333387858, 7.294305555230663 ], [ 2.099583333387858, 7.294583333008287 ], [ 2.099305555610455, 7.294583333008287 ], [ 2.099305555610455, 7.294861110785911 ], [ 2.099027777833052, 7.294861110785911 ], [ 2.099027777833052, 7.29541666634116 ], [ 2.098750000055649, 7.29541666634116 ], [ 2.098750000055649, 7.295694444118785 ], [ 2.09791666672344, 7.295694444118785 ], [ 2.09791666672344, 7.296249999674033 ], [ 2.097638888946037, 7.296249999674033 ], [ 2.097638888946037, 7.296527777451657 ], [ 2.097361111168634, 7.296527777451657 ], [ 2.097361111168634, 7.296249999674033 ], [ 2.095694444504216, 7.296249999674033 ], [ 2.095694444504216, 7.296527777451657 ], [ 2.095416666726813, 7.296527777451657 ] ] ] } }
]
}
