{
  "type": "FeatureCollection",
  "features": [
    {
      "type": "Feature",
      "properties": { "type": "bassin_versant", "nom": "Bassin versant — exemple Bohicon", "superficie_km2": 187.4 },
      "geometry": {
        "type": "Polygon",
        "coordinates": [[
          [1.970, 7.290], [2.040, 7.300], [2.110, 7.295], [2.170, 7.270],
          [2.195, 7.230], [2.190, 7.180], [2.170, 7.140], [2.140, 7.100],
          [2.100, 7.075], [2.050, 7.065], [2.000, 7.075], [1.965, 7.100],
          [1.950, 7.140], [1.945, 7.190], [1.955, 7.240], [1.970, 7.290]
        ]]
      }
    },
    {
      "type": "Feature",
      "properties": { "type": "cours_eau", "nom": "Cours principal", "strahler_order": 3, "longueur_km": 28.6 },
      "geometry": {
        "type": "LineString",
        "coordinates": [
          [2.050, 7.065], [2.055, 7.090], [2.062, 7.115], [2.070, 7.140],
          [2.075, 7.165], [2.078, 7.190], [2.080, 7.215], [2.085, 7.240],
          [2.090, 7.265], [2.095, 7.285]
        ]
      }
    },
    {
      "type": "Feature",
      "properties": { "type": "cours_eau", "nom": "Affluent Ouest", "strahler_order": 2, "longueur_km": 14.2 },
      "geometry": {
        "type": "LineString",
        "coordinates": [
          [1.975, 7.145], [1.995, 7.150], [2.015, 7.155], [2.035, 7.160],
          [2.055, 7.163], [2.070, 7.140]
        ]
      }
    },
    {
      "type": "Feature",
      "properties": { "type": "cours_eau", "nom": "Affluent Est", "strahler_order": 2, "longueur_km": 11.8 },
      "geometry": {
        "type": "LineString",
        "coordinates": [
          [2.165, 7.135], [2.145, 7.145], [2.125, 7.155], [2.100, 7.170],
          [2.078, 7.190]
        ]
      }
    },
    {
      "type": "Feature",
      "properties": { "type": "cours_eau", "nom": "Ru 1", "strahler_order": 1, "longueur_km": 6.1 },
      "geometry": {
        "type": "LineString",
        "coordinates": [[1.960, 7.110], [1.968, 7.128], [1.975, 7.145]]
      }
    },
    {
      "type": "Feature",
      "properties": { "type": "cours_eau", "nom": "Ru 2", "strahler_order": 1, "longueur_km": 5.4 },
      "geometry": {
        "type": "LineString",
        "coordinates": [[2.010, 7.100], [2.025, 7.128], [2.035, 7.160]]
      }
    },
    {
      "type": "Feature",
      "properties": { "type": "cours_eau", "nom": "Ru 3", "strahler_order": 1, "longueur_km": 7.0 },
      "geometry": {
        "type": "LineString",
        "coordinates": [[2.185, 7.100], [2.175, 7.118], [2.165, 7.135]]
      }
    },
    {
      "type": "Feature",
      "properties": { "type": "cours_eau", "nom": "Ru 4", "strahler_order": 1, "longueur_km": 5.8 },
      "geometry": {
        "type": "LineString",
        "coordinates": [[2.135, 7.108], [2.128, 7.130], [2.125, 7.155]]
      }
    },
    {
      "type": "Feature",
      "properties": { "type": "exutoire", "nom": "Exutoire" },
      "geometry": { "type": "Point", "coordinates": [2.095, 7.285] }
    }
  ]
}
